Hostname,HostFqdn,HostIP,AdminSafe,AdminUser,AdminAddress,ServiceName,ServiceSafe,ServiceUser,ServiceAddress,TimeOut
Host2,Host2.test.you.com,192.168.1.112,ServerAdminSafe,ServerAdminUser,ServerAdminAddress,ServerServiceName01,ServerServiceSafe,ServerServiceUser,ServerServiceAddress,ServerServiceTimeOut
Host2,Host2.test.you.com,192.168.1.112,ServerAdminSafe,ServerAdminUser,ServerAdminAddress,ServerServiceName02,ServerServiceSafe,ServerServiceUser,ServerServiceAddress,ServerServiceTimeOut
Host2,Host2.test.you.com,192.168.1.112,ServerAdminSafe,ServerAdminUser,ServerAdminAddress,ServerServiceName03,ServerServiceSafe,ServerServiceUser,ServerServiceAddress,ServerServiceTimeOut
Host2,Host2.test.you.com,192.168.1.112,ServerAdminSafe,ServerAdminUser,ServerAdminAddress,ServerServiceName04,ServerServiceSafe,ServerServiceUser,ServerServiceAddress,ServerServiceTimeOut
Host2,Host2.test.you.com,192.168.1.112,ServerAdminSafe,ServerAdminUser,ServerAdminAddress,ServerServiceName05,ServerServiceSafe,ServerServiceUser,ServerServiceAddress,ServerServiceTimeOut
Host2,Host2.test.you.com,192.168.1.112,ServerAdminSafe,ServerAdminUser,ServerAdminAddress,ServerServiceName06,ServerServiceSafe,ServerServiceUser,ServerServiceAddress,ServerServiceTimeOut
Host2,Host2.test.you.com,192.168.1.112,ServerAdminSafe,ServerAdminUser,ServerAdminAddress,ServerServiceName07,ServerServiceSafe,ServerServiceUser,ServerServiceAddress,ServerServiceTimeOut
Host2,Host2.test.you.com,192.168.1.112,ServerAdminSafe,ServerAdminUser,ServerAdminAddress,ServerServiceName08,ServerServiceSafe,ServerServiceUser,ServerServiceAddress,ServerServiceTimeOut
Host2,Host2.test.you.com,192.168.1.112,ServerAdminSafe,ServerAdminUser,ServerAdminAddress,ServerServiceName09,ServerServiceSafe,ServerServiceUser,ServerServiceAddress,ServerServiceTimeOut
Host2,Host2.test.you.com,192.168.1.112,ServerAdminSafe,ServerAdminUser,ServerAdminAddress,ServerServiceName10,ServerServiceSafe,ServerServiceUser,ServerServiceAddress,ServerServiceTimeOut
Host1,Host1.test.you.com,192.168.1.111,ServerAdminSafe,ServerAdminUser,ServerAdminAddress,ServerServiceName01,ServerServiceSafe,ServerServiceUser,ServerServiceAddress,ServerServiceTimeOut
Host1,Host1.test.you.com,192.168.1.111,ServerAdminSafe,ServerAdminUser,ServerAdminAddress,ServerServiceName02,ServerServiceSafe,ServerServiceUser,ServerServiceAddress,ServerServiceTimeOut
Host1,Host1.test.you.com,192.168.1.111,ServerAdminSafe,ServerAdminUser,ServerAdminAddress,ServerServiceName03,ServerServiceSafe,ServerServiceUser,ServerServiceAddress,ServerServiceTimeOut
Host1,Host1.test.you.com,192.168.1.111,ServerAdminSafe,ServerAdminUser,ServerAdminAddress,ServerServiceName04,ServerServiceSafe,ServerServiceUser,ServerServiceAddress,ServerServiceTimeOut
Host1,Host1.test.you.com,192.168.1.111,ServerAdminSafe,ServerAdminUser,ServerAdminAddress,ServerServiceName05,ServerServiceSafe,ServerServiceUser,ServerServiceAddress,ServerServiceTimeOut
Host1,Host1.test.you.com,192.168.1.111,ServerAdminSafe,ServerAdminUser,ServerAdminAddress,ServerServiceName06,ServerServiceSafe,ServerServiceUser,ServerServiceAddress,ServerServiceTimeOut
Host1,Host1.test.you.com,192.168.1.111,ServerAdminSafe,ServerAdminUser,ServerAdminAddress,ServerServiceName07,ServerServiceSafe,ServerServiceUser,ServerServiceAddress,ServerServiceTimeOut
Host1,Host1.test.you.com,192.168.1.111,ServerAdminSafe,ServerAdminUser,ServerAdminAddress,ServerServiceName08,ServerServiceSafe,ServerServiceUser,ServerServiceAddress,ServerServiceTimeOut
Host1,Host1.test.you.com,192.168.1.111,ServerAdminSafe,ServerAdminUser,ServerAdminAddress,ServerServiceName09,ServerServiceSafe,ServerServiceUser,ServerServiceAddress,ServerServiceTimeOut
Host1,Host1.test.you.com,192.168.1.111,ServerAdminSafe,ServerAdminUser,ServerAdminAddress,ServerServiceName10,ServerServiceSafe,ServerServiceUser,ServerServiceAddress,ServerServiceTimeOut
Host3,Host3.test.you.com,192.168.1.113,ServerAdminSafe,ServerAdminUser,ServerAdminAddress,ServerServiceName01,ServerServiceSafe,ServerServiceUser,ServerServiceAddress,ServerServiceTimeOut
Host3,Host3.test.you.com,192.168.1.113,ServerAdminSafe,ServerAdminUser,ServerAdminAddress,ServerServiceName02,ServerServiceSafe,ServerServiceUser,ServerServiceAddress,ServerServiceTimeOut
Host3,Host3.test.you.com,192.168.1.113,ServerAdminSafe,ServerAdminUser,ServerAdminAddress,ServerServiceName03,ServerServiceSafe,ServerServiceUser,ServerServiceAddress,ServerServiceTimeOut
Host3,Host3.test.you.com,192.168.1.113,ServerAdminSafe,ServerAdminUser,ServerAdminAddress,ServerServiceName04,ServerServiceSafe,ServerServiceUser,ServerServiceAddress,ServerServiceTimeOut
Host3,Host3.test.you.com,192.168.1.113,ServerAdminSafe,ServerAdminUser,ServerAdminAddress,ServerServiceName05,ServerServiceSafe,ServerServiceUser,ServerServiceAddress,ServerServiceTimeOut
Host3,Host3.test.you.com,192.168.1.113,ServerAdminSafe,ServerAdminUser,ServerAdminAddress,ServerServiceName06,ServerServiceSafe,ServerServiceUser,ServerServiceAddress,ServerServiceTimeOut
Host3,Host3.test.you.com,192.168.1.113,ServerAdminSafe,ServerAdminUser,ServerAdminAddress,ServerServiceName07,ServerServiceSafe,ServerServiceUser,ServerServiceAddress,ServerServiceTimeOut
Host3,Host3.test.you.com,192.168.1.113,ServerAdminSafe,ServerAdminUser,ServerAdminAddress,ServerServiceName08,ServerServiceSafe,ServerServiceUser,ServerServiceAddress,ServerServiceTimeOut
Host3,Host3.test.you.com,192.168.1.113,ServerAdminSafe,ServerAdminUser,ServerAdminAddress,ServerServiceName09,ServerServiceSafe,ServerServiceUser,ServerServiceAddress,ServerServiceTimeOut
Host3,Host3.test.you.com,192.168.1.113,ServerAdminSafe,ServerAdminUser,ServerAdminAddress,ServerServiceName10,ServerServiceSafe,ServerServiceUser,ServerServiceAddress,ServerServiceTimeOut
